{
  "type": "FeatureCollection",
  "features": [
    {
      "type": "Feature",
      "properties": {
        "norad_id": 36053,
        "name": "COSMOS 2251 DEB",
        "group": "cosmos-2251-debris",
        "lat": 25.758180141550213,
        "lon": -17.04337944983336,
        "alt_km": 681.3292668264794,
        "timestamp": "2025-12-03T04:52:30.035901+00:00",
        "meta_object_name": "COSMOS 2251 DEB",
        "meta_object_id": "1993-036AXQ",
        "meta_epoch": "2025-12-01T06:02:04.873920",
        "meta_mean_motion": 14.56926822,
        "meta_eccentricity": 0.0033176,
        "meta_inclination": 73.8721,
        "meta_ra_of_asc_node": 174.7239,
        "meta_arg_of_pericenter": 127.7081,
        "meta_mean_anomaly": 232.7098,
        "meta_ephemeris_type": 0,
        "meta_classification_type": "U",
        "meta_norad_cat_id": 36053,
        "meta_element_set_no": 999,
        "meta_rev_at_epoch": 87277,
        "meta_bstar": 0.0017117,
        "meta_mean_motion_dot": 7.72e-05,
        "meta_mean_motion_ddot": 0,
        "tle_line1": "1 36053U 93036AXQ 25335.25144530  .00007720  00000+0  17117-2 0  9994",
        "tle_line2": "2 36053  73.8721 174.7239 0033176 127.7081 232.7098 14.56926822872773"
      },
      "geometry": {
        "type": "Point",
        "coordinates": [
          -17.04337944983336,
          25.758180141550213
        ]
      }
    },
    {
      "type": "Feature",
      "properties": {
        "norad_id": 36058,
        "name": "COSMOS 2251 DEB",
        "group": "cosmos-2251-debris",
        "lat": -43.49719181147907,
        "lon": -112.59140462928534,
        "alt_km": 678.6025128937654,
        "timestamp": "2025-12-03T04:52:30.035911+00:00",
        "meta_object_name": "COSMOS 2251 DEB",
        "meta_object_id": "1993-036AXV",
        "meta_epoch": "2025-11-30T23:10:11.236512",
        "meta_mean_motion": 14.58588608,
        "meta_eccentricity": 0.00452994,
        "meta_inclination": 74.0241,
        "meta_ra_of_asc_node": 55.8971,
        "meta_arg_of_pericenter": 192.6971,
        "meta_mean_anomaly": 167.3058,
        "meta_ephemeris_type": 0,
        "meta_classification_type": "U",
        "meta_norad_cat_id": 36058,
        "meta_element_set_no": 999,
        "meta_rev_at_epoch": 65939,
        "meta_bstar": 0.00077118146,
        "meta_mean_motion_dot": 3.611e-05,
        "meta_mean_motion_ddot": 0,
        "tle_line1": "1 36058U 93036AXV 25334.96540783  .00003611  00000+0  77118-3 0  9999",
        "tle_line2": "2 36058  74.0241  55.8971 0045299 192.6971 167.3058 14.58588608659396"
      },
      "geometry": {
        "type": "Point",
        "coordinates": [
          -112.59140462928534,
          -43.49719181147907
        ]
      }
    },
    {
      "type": "Feature",
      "properties": {
        "norad_id": 36060,
        "name": "COSMOS 2251 DEB",
        "group": "cosmos-2251-debris",
        "lat": -19.54125252307754,
        "lon": -113.58313867686502,
        "alt_km": 746.358605970333,
        "timestamp": "2025-12-03T04:52:30.035921+00:00",
        "meta_object_name": "COSMOS 2251 DEB",
        "meta_object_id": "1993-036AXX",
        "meta_epoch": "2025-12-02T00:39:45.634464",
        "meta_mean_motion": 14.41957589,
        "meta_eccentricity": 0.00148938,
        "meta_inclination": 74.0292,
        "meta_ra_of_asc_node": 254.4297,
        "meta_arg_of_pericenter": 352.6862,
        "meta_mean_anomaly": 7.4074,
        "meta_ephemeris_type": 0,
        "meta_classification_type": "U",
        "meta_norad_cat_id": 36060,
        "meta_element_set_no": 999,
        "meta_rev_at_epoch": 84855,
        "meta_bstar": 0.00041599458,
        "meta_mean_motion_dot": 1.339e-05,
        "meta_mean_motion_ddot": 0,
        "tle_line1": "1 36060U 93036AXX 25336.02761151  .00001339  00000+0  41599-3 0  9994",
        "tle_line2": "2 36060  74.0292 254.4297 0014893 352.6862   7.4074 14.41957589848556"
      },
      "geometry": {
        "type": "Point",
        "coordinates": [
          -113.58313867686502,
          -19.54125252307754
        ]
      }
    },
    {
      "type": "Feature",
      "properties": {
        "norad_id": 36061,
        "name": "COSMOS 2251 DEB",
        "group": "cosmos-2251-debris",
        "lat": 73.35406711804656,
        "lon": 90.57892215034765,
        "alt_km": 747.7304353116506,
        "timestamp": "2025-12-03T04:52:30.035931+00:00",
        "meta_object_name": "COSMOS 2251 DEB",
        "meta_object_id": "1993-036AXY",
        "meta_epoch": "2025-12-02T10:03:29.896128",
        "meta_mean_motion": 14.33681978,
        "meta_eccentricity": 0.00369065,
        "meta_inclination": 74.0244,
        "meta_ra_of_asc_node": 18.6507,
        "meta_arg_of_pericenter": 109.9251,
        "meta_mean_anomaly": 250.5883,
        "meta_ephemeris_type": 0,
        "meta_classification_type": "U",
        "meta_norad_cat_id": 36061,
        "meta_element_set_no": 999,
        "meta_rev_at_epoch": 64956,
        "meta_bstar": 0.00036059137,
        "meta_mean_motion_dot": 9.82e-06,
        "meta_mean_motion_ddot": 0,
        "tle_line1": "1 36061U 93036AXY 25336.41909602  .00000982  00000+0  36059-3 0  9991",
        "tle_line2": "2 36061  74.0244  18.6507 0036906 109.9251 250.5883 14.33681978649568"
      },
      "geometry": {
        "type": "Point",
        "coordinates": [
          90.57892215034765,
          73.35406711804656
        ]
      }
    },
    {
      "type": "Feature",
      "properties": {
        "norad_id": 36073,
        "name": "COSMOS 2251 DEB",
        "group": "cosmos-2251-debris",
        "lat": 38.606293841309515,
        "lon": 146.82528468064274,
        "alt_km": 771.5341928956586,
        "timestamp": "2025-12-03T04:52:30.035941+00:00",
        "meta_object_name": "COSMOS 2251 DEB",
        "meta_object_id": "1993-036AYL",
        "meta_epoch": "2025-12-02T18:11:25.029312",
        "meta_mean_motion": 14.34931351,
        "meta_eccentricity": 0.0023452,
        "meta_inclination": 74.0318,
        "meta_ra_of_asc_node": 340.8572,
        "meta_arg_of_pericenter": 51.9571,
        "meta_mean_anomaly": 308.3693,
        "meta_ephemeris_type": 0,
        "meta_classification_type": "U",
        "meta_norad_cat_id": 36073,
        "meta_element_set_no": 999,
        "meta_rev_at_epoch": 70064,
        "meta_bstar": 0.00029028,
        "meta_mean_motion_dot": 8.02e-06,
        "meta_mean_motion_ddot": 0,
        "tle_line1": "1 36073U 93036AYL 25336.75792858  .00000802  00000+0  29028-3 0  9993",
        "tle_line2": "2 36073  74.0318 340.8572 0023452  51.9571 308.3693 14.34931351700640"
      },
      "geometry": {
        "type": "Point",
        "coordinates": [
          146.82528468064274,
          38.606293841309515
        ]
      }
    },
    {
      "type": "Feature",
      "properties": {
        "norad_id": 36074,
        "name": "COSMOS 2251 DEB",
        "group": "cosmos-2251-debris",
        "lat": -23.489450103414406,
        "lon": -8.896086479112077,
        "alt_km": 765.5491673242568,
        "timestamp": "2025-12-03T04:52:30.035951+00:00",
        "meta_object_name": "COSMOS 2251 DEB",
        "meta_object_id": "1993-036AYM",
        "meta_epoch": "2025-11-30T08:47:56.269536",
        "meta_mean_motion": 14.43612377,
        "meta_eccentricity": 0.00417412,
        "meta_inclination": 73.9972,
        "meta_ra_of_asc_node": 3.551,
        "meta_arg_of_pericenter": 99.6494,
        "meta_mean_anomaly": 260.9382,
        "meta_ephemeris_type": 0,
        "meta_classification_type": "U",
        "meta_norad_cat_id": 36074,
        "meta_element_set_no": 999,
        "meta_rev_at_epoch": 85731,
        "meta_bstar": 0.00086426668,
        "meta_mean_motion_dot": 2.936e-05,
        "meta_mean_motion_ddot": 0,
        "tle_line1": "1 36074U 93036AYM 25334.36662349  .00002936  00000+0  86427-3 0  9996",
        "tle_line2": "2 36074  73.9972   3.5510 0041741  99.6494 260.9382 14.43612377857313"
      },
      "geometry": {
        "type": "Point",
        "coordinates": [
          -8.896086479112077,
          -23.489450103414406
        ]
      }
    },
    {
      "type": "Feature",
      "properties": {
        "norad_id": 36366,
        "name": "COSMOS 2251 DEB",
        "group": "cosmos-2251-debris",
        "lat": -73.60722619217825,
        "lon": -173.3225388930156,
        "alt_km": 749.6513643334274,
        "timestamp": "2025-12-03T04:52:30.035961+00:00",
        "meta_object_name": "COSMOS 2251 DEB",
        "meta_object_id": "1993-036AYT",
        "meta_epoch": "2025-12-02T05:51:07.218720",
        "meta_mean_motion": 14.33192884,
        "meta_eccentricity": 0.0091167,
        "meta_inclination": 74.0653,
        "meta_ra_of_asc_node": 292.2194,
        "meta_arg_of_pericenter": 322.5756,
        "meta_mean_anomaly": 36.9067,
        "meta_ephemeris_type": 0,
        "meta_classification_type": "U",
        "meta_norad_cat_id": 36366,
        "meta_element_set_no": 999,
        "meta_rev_at_epoch": 86138,
        "meta_bstar": 0.0027816,
        "meta_mean_motion_dot": 7.987e-05,
        "meta_mean_motion_ddot": 0,
        "tle_line1": "1 36366U 93036AYT 25336.24383355  .00007987  00000+0  27816-2 0  9993",
        "tle_line2": "2 36366  74.0653 292.2194 0091167 322.5756  36.9067 14.33192884861384"
      },
      "geometry": {
        "type": "Point",
        "coordinates": [
          -173.3225388930156,
          -73.60722619217825
        ]
      }
    }
  ]
}